ASTROCAST-0103          
1 47487U 21006CC  26068.70056502  .00087857  00000+0  63760-3 0  9995
2 47487  97.2627 138.0845 0005706 147.8600 212.3013 15.73114428285528
STARLINK-11457 [DTC]    
1 62919U 25027N   26068.16675277  .00313666  00000+0  23526-2 0  9990
2 62919  42.9996 350.4756 0001872 298.8787  61.1893 15.70883166 63074
